EARTHCARE               
1 59908U 24101A   24180.36108528  .00020771  00000+0  31792-3 0  9998
2 59908  96.9812 307.8611 0005024  76.4819 283.6995 15.54371485  4728
